[{"OBJECT_NAME":"SL-8 R/B","OBJECT_ID":"1979-089B","EPOCH":"2026-04-05T20:45:25.919712","MEAN_MOTION":14.42370189,"ECCENTRICITY":0.0016466,"INCLINATION":74.0704,"RA_OF_ASC_NODE":40.7361,"ARG_OF_PERICENTER":209.5418,"MEAN_ANOMALY":150.481,"EPHEMERIS_TYPE":0,"CLASSIFICATION_TYPE":"U","NORAD_CAT_ID":11574,"ELEMENT_SET_NO":999,"REV_AT_EPOCH":44002,"BSTAR":0.00013073,"MEAN_MOTION_DOT":4.06e-6,"MEAN_MOTION_DDOT":0},{"OBJECT_NAME":"SL-14 R/B","OBJECT_ID":"1980-005B","EPOCH":"2026-04-05T20:11:39.240096","MEAN_MOTION":14.90964244,"ECCENTRICITY":0.0017191,"INCLINATION":82.5107,"RA_OF_ASC_NODE":281.4726,"ARG_OF_PERICENTER":74.5137,"MEAN_ANOMALY":285.7979,"EPHEMERIS_TYPE":0,"CLASSIFICATION_TYPE":"U","NORAD_CAT_ID":11672,"ELEMENT_SET_NO":999,"REV_AT_EPOCH":48053,"BSTAR":7.3301e-5,"MEAN_MOTION_DOT":7.51e-6,"MEAN_MOTION_DDOT":0},{"OBJECT_NAME":"SL-8 R/B","OBJECT_ID":"1981-003B","EPOCH":"2026-04-05T11:32:16.685952","MEAN_MOTION":15.12250511,"ECCENTRICITY":0.02595368,"INCLINATION":82.9349,"RA_OF_ASC_NODE":265.2248,"ARG_OF_PERICENTER":85.593,"MEAN_ANOMALY":277.4904,"EPHEMERIS_TYPE":0,"CLASSIFICATION_TYPE":"U","NORAD_CAT_ID":12139,"ELEMENT_SET_NO":999,"REV_AT_EPOCH":31872,"BSTAR":0.00066332202,"MEAN_MOTION_DOT":0.00026697,"MEAN_MOTION_DDOT":0},{"OBJECT_NAME":"SL-3 R/B","OBJECT_ID":"1981-046B","EPOCH":"2026-04-05T20:07:11.967744","MEAN_MOTION":15.42716598,"ECCENTRICITY":0.0018046,"INCLINATION":81.2294,"RA_OF_ASC_NODE":257.1204,"ARG_OF_PERICENTER":285.4934,"MEAN_ANOMALY":74.4316,"EPHEMERIS_TYPE":0,"CLASSIFICATION_TYPE":"U","NORAD_CAT_ID":12465,"ELEMENT_SET_NO":999,"REV_AT_EPOCH":44261,"BSTAR":0.00032007,"MEAN_MOTION_DOT":0.0001409,"MEAN_MOTION_DDOT":0},{"OBJECT_NAME":"SL-3 R/B","OBJECT_ID":"1981-103B","EPOCH":"2026-04-05T19:13:30.472032","MEAN_MOTION":15.2171766,"ECCENTRICITY":0.0013152,"INCLINATION":81.1605,"RA_OF_ASC_NODE":181.6278,"ARG_OF_PERICENTER":190.4179,"MEAN_ANOMALY":169.6782,"EPHEMERIS_TYPE":0,"CLASSIFICATION_TYPE":"U","NORAD_CAT_ID":12904,"ELEMENT_SET_NO":999,"REV_AT_EPOCH":97735,"BSTAR":0.00026811,"MEAN_MOTION_DOT":6.109e-5,"MEAN_MOTION_DDOT":0},{"OBJECT_NAME":"SL-3 R/B","OBJECT_ID":"1982-013B","EPOCH":"2026-04-05T19:09:46.111104","MEAN_MOTION":15.22271813,"ECCENTRICITY":0.0023542,"INCLINATION":81.1718,"RA_OF_ASC_NODE":128.9911,"ARG_OF_PERICENTER":89.0692,"MEAN_ANOMALY":271.3237,"EPHEMERIS_TYPE":0,"CLASSIFICATION_TYPE":"U","NORAD_CAT_ID":13068,"ELEMENT_SET_NO":999,"REV_AT_EPOCH":40847,"BSTAR":0.00019763,"MEAN_MOTION_DOT":4.608e-5,"MEAN_MOTION_DDOT":0},{"OBJECT_NAME":"SL-3 R/B","OBJECT_ID":"1982-039B","EPOCH":"2026-04-05T19:44:51.558144","MEAN_MOTION":15.10247297,"ECCENTRICITY":0.0028135,"INCLINATION":81.1551,"RA_OF_ASC_NODE":184.6732,"ARG_OF_PERICENTER":233.8547,"MEAN_ANOMALY":126.0075,"EPHEMERIS_TYPE":0,"CLASSIFICATION_TYPE":"U","NORAD_CAT_ID":13154,"ELEMENT_SET_NO":999,"REV_AT_EPOCH":38573,"BSTAR":0.00019243,"MEAN_MOTION_DOT":3.199e-5,"MEAN_MOTION_DDOT":0},{"OBJECT_NAME":"SL-3 R/B","OBJECT_ID":"1982-079B","EPOCH":"2026-04-05T19:57:20.215872","MEAN_MOTION":15.25173062,"ECCENTRICITY":0.0025348,"INCLINATION":81.1469,"RA_OF_ASC_NODE":161.0267,"ARG_OF_PERICENTER":75.8039,"MEAN_ANOMALY":284.6008,"EPHEMERIS_TYPE":0,"CLASSIFICATION_TYPE":"U","NORAD_CAT_ID":13403,"ELEMENT_SET_NO":999,"REV_AT_EPOCH":38183,"BSTAR":0.00022871,"MEAN_MOTION_DOT":5.815e-5,"MEAN_MOTION_DDOT":0},{"OBJECT_NAME":"SL-14 R/B","OBJECT_ID":"1982-092B","EPOCH":"2026-04-05T18:55:48.885600","MEAN_MOTION":14.86692629,"ECCENTRICITY":0.001957,"INCLINATION":82.5649,"RA_OF_ASC_NODE":116.0461,"ARG_OF_PERICENTER":207.2758,"MEAN_ANOMALY":326.2356,"EPHEMERIS_TYPE":0,"CLASSIFICATION_TYPE":"U","NORAD_CAT_ID":13553,"ELEMENT_SET_NO":999,"REV_AT_EPOCH":33295,"BSTAR":6.2206e-5,"MEAN_MOTION_DOT":5.79e-6,"MEAN_MOTION_DDOT":0},{"OBJECT_NAME":"SL-3 R/B","OBJECT_ID":"1983-010B","EPOCH":"2026-04-05T17:40:23.492064","MEAN_MOTION":15.47306137,"ECCENTRICITY":0.0015328,"INCLINATION":81.1027,"RA_OF_ASC_NODE":329.067,"ARG_OF_PERICENTER":316.3015,"MEAN_ANOMALY":43.7015,"EPHEMERIS_TYPE":0,"CLASSIFICATION_TYPE":"U","NORAD_CAT_ID":13819,"ELEMENT_SET_NO":999,"REV_AT_EPOCH":36212,"BSTAR":0.00033508,"MEAN_MOTION_DOT":0.00017214,"MEAN_MOTION_DDOT":0},{"OBJECT_NAME":"SL-3 R/B","OBJECT_ID":"1983-075B","EPOCH":"2026-04-05T19:18:50.832864","MEAN_MOTION":15.39106998,"ECCENTRICITY":0.0022927,"INCLINATION":97.6137,"RA_OF_ASC_NODE":101.4226,"ARG_OF_PERICENTER":129.703,"MEAN_ANOMALY":230.6241,"EPHEMERIS_TYPE":0,"CLASSIFICATION_TYPE":"U","NORAD_CAT_ID":14208,"ELEMENT_SET_NO":999,"REV_AT_EPOCH":33432,"BSTAR":0.00033398,"MEAN_MOTION_DOT":0.00012976,"MEAN_MOTION_DDOT":0},{"OBJECT_NAME":"COSMOS 1536","OBJECT_ID":"1984-013A","EPOCH":"2026-04-05T10:37:50.835072","MEAN_MOTION":15.24226065,"ECCENTRICITY":0.00142677,"INCLINATION":82.5422,"RA_OF_ASC_NODE":81.241,"ARG_OF_PERICENTER":179.9442,"MEAN_ANOMALY":180.18,"EPHEMERIS_TYPE":0,"CLASSIFICATION_TYPE":"U","NORAD_CAT_ID":14699,"ELEMENT_SET_NO":999,"REV_AT_EPOCH":27669,"BSTAR":0.00035976962,"MEAN_MOTION_DOT":8.828e-5,"MEAN_MOTION_DDOT":0},{"OBJECT_NAME":"SL-14 R/B","OBJECT_ID":"1984-027B","EPOCH":"2026-04-05T18:18:03.491424","MEAN_MOTION":14.86008473,"ECCENTRICITY":0.0016672,"INCLINATION":82.543,"RA_OF_ASC_NODE":219.6215,"ARG_OF_PERICENTER":241.5187,"MEAN_ANOMALY":118.4351,"EPHEMERIS_TYPE":0,"CLASSIFICATION_TYPE":"U","NORAD_CAT_ID":14820,"ELEMENT_SET_NO":999,"REV_AT_EPOCH":25165,"BSTAR":8.6577e-5,"MEAN_MOTION_DOT":7.82e-6,"MEAN_MOTION_DDOT":0},{"OBJECT_NAME":"SL-8 R/B","OBJECT_ID":"1985-006B","EPOCH":"2026-04-05T15:53:57.124608","MEAN_MOTION":14.37803705,"ECCENTRICITY":0.0017441,"INCLINATION":74.0462,"RA_OF_ASC_NODE":211.5145,"ARG_OF_PERICENTER":121.1122,"MEAN_ANOMALY":340.4457,"EPHEMERIS_TYPE":0,"CLASSIFICATION_TYPE":"U","NORAD_CAT_ID":15483,"ELEMENT_SET_NO":999,"REV_AT_EPOCH":15790,"BSTAR":0.0001423,"MEAN_MOTION_DOT":4.03e-6,"MEAN_MOTION_DDOT":0},{"OBJECT_NAME":"SL-12 R/B(2)","OBJECT_ID":"1985-042D","EPOCH":"2026-04-05T14:06:29.844288","MEAN_MOTION":14.21990815,"ECCENTRICITY":0.0032849,"INCLINATION":71.1102,"RA_OF_ASC_NODE":30.8988,"ARG_OF_PERICENTER":83.4485,"MEAN_ANOMALY":88.5582,"EPHEMERIS_TYPE":0,"CLASSIFICATION_TYPE":"U","NORAD_CAT_ID":15772,"ELEMENT_SET_NO":999,"REV_AT_EPOCH":11821,"BSTAR":0.0001002,"MEAN_MOTION_DOT":1.75e-6,"MEAN_MOTION_DDOT":0},{"OBJECT_NAME":"SL-14 R/B","OBJECT_ID":"1985-069B","EPOCH":"2026-04-05T19:21:11.293344","MEAN_MOTION":14.86464471,"ECCENTRICITY":0.0020325,"INCLINATION":82.5303,"RA_OF_ASC_NODE":359.4423,"ARG_OF_PERICENTER":101.5721,"MEAN_ANOMALY":258.7779,"EPHEMERIS_TYPE":0,"CLASSIFICATION_TYPE":"U","NORAD_CAT_ID":15945,"ELEMENT_SET_NO":999,"REV_AT_EPOCH":17686,"BSTAR":7.4737e-5,"MEAN_MOTION_DOT":6.87e-6,"MEAN_MOTION_DDOT":0},{"OBJECT_NAME":"SL-16 R/B","OBJECT_ID":"1985-097B","EPOCH":"2026-04-05T09:43:25.980384","MEAN_MOTION":14.1660242,"ECCENTRICITY":0.00091505,"INCLINATION":71.0009,"RA_OF_ASC_NODE":84.3069,"ARG_OF_PERICENTER":227.6804,"MEAN_ANOMALY":241.5783,"EPHEMERIS_TYPE":0,"CLASSIFICATION_TYPE":"U","NORAD_CAT_ID":16182,"ELEMENT_SET_NO":999,"REV_AT_EPOCH":9101,"BSTAR":-3.6920167e-5,"MEAN_MOTION_DOT":-1.22e-6,"MEAN_MOTION_DDOT":0}]
